CYGNUS NG-23            
1 65616U 25208A   26001.53284554  .00016743  00000+0  31110-3 0  9995
2 65616  51.6329  44.4619 0007509 327.7813  32.2715 15.49008068   227
1998-067XK              
1 65731U 98067XK  26001.36769096  .00152587  00000+0  12189-2 0  9997
2 65731  51.6292  37.3597 0005223   6.3823 353.7240 15.70097429 16226
RSP-03                  
1 65732U 98067XL  26001.39159413  .00219741  00000+0  14376-2 0  9993
2 65732  51.6263  35.9995 0006403  13.7853 346.3320 15.74581620 16252
GHS-01                  
1 65733U 98067XM  25365.48362391  .00449903  00000+0  17624-2 0  9991
2 65733  51.6279  38.1728 0009735  30.7902 329.3671 15.85182050 16148
YOTSUBA-KULOVER         
1 65941U 98067XN  26001.56071904  .00115643  00000+0  12620-2 0  9998
2 65941  51.6300  40.1525 0003370  38.1673 321.9559 15.62488013 12959
BOTAN                   
1 65942U 98067XP  26001.32162869  .00169962  00000+0  14984-2 0  9992
2 65942  51.6277  40.0514 0004280  24.9274 335.1928 15.67643310 12934
E-KAGAKU-1              
1 65943U 98067XQ  25365.40936882  .00099002  00000+0  10914-2 0  9994
2 65943  51.6389  45.9720 0002126  46.3499 313.7671 15.62302585 12776
HRC MONOBLOCK CAMERA    
1 66052U 98067XR  26001.57570089  .00050623  00000+0  72564-3 0  9991
2 66052  51.6312  42.4996 0001551 292.9372  67.1456 15.55646742 11926
HTV-X1                  
1 66174U 25241A   26001.53284554  .00016743  00000+0  31110-3 0  9992
2 66174  51.6329  44.4619 0007509 327.7813  32.2715 15.49008068   519
SHENZHOU-22             
1 66645U 25272A   26001.37383927  .00025321  00000+0  30674-3 0  9991
2 66645  41.4667 257.4382 0010026 196.8065 163.2443 15.60009299266998
