CCSDS_OMM_VERS = 2.0
CREATION_DATE  = 
ORIGINATOR     = 

OBJECT_NAME    = CYGNUS NG-23
OBJECT_ID      = 2025-208A
CENTER_NAME    = EARTH
REF_FRAME      = TEME
TIME_SYSTEM    = UTC
MEAN_ELEMENT_THEORY = SGP/SGP4

EPOCH          = 2026-01-01T12:47:17.854656
MEAN_MOTION    = 15.49008068
ECCENTRICITY   = .00075094
INCLINATION    = 51.6329
RA_OF_ASC_NODE = 44.4619
ARG_OF_PERICENTER = 327.7813
MEAN_ANOMALY   = 32.2715

EPHEMERIS_TYPE = 0
CLASSIFICATION_TYPE = U
NORAD_CAT_ID   = 65616
ELEMENT_SET_NO = 999
REV_AT_EPOCH   = 22
BSTAR          = .31109963E-3
MEAN_MOTION_DOT = .16743E-3
MEAN_MOTION_DDOT = 0

CCSDS_OMM_VERS = 2.0
CREATION_DATE  = 
ORIGINATOR     = 

OBJECT_NAME    = 1998-067XK
OBJECT_ID      = 1998-067XK
CENTER_NAME    = EARTH
REF_FRAME      = TEME
TIME_SYSTEM    = UTC
MEAN_ELEMENT_THEORY = SGP/SGP4

EPOCH          = 2026-01-01T08:49:28.498944
MEAN_MOTION    = 15.70097429
ECCENTRICITY   = .0005223
INCLINATION    = 51.6292
RA_OF_ASC_NODE = 37.3597
ARG_OF_PERICENTER = 6.3823
MEAN_ANOMALY   = 353.7240

EPHEMERIS_TYPE = 0
CLASSIFICATION_TYPE = U
NORAD_CAT_ID   = 65731
ELEMENT_SET_NO = 999
REV_AT_EPOCH   = 1622
BSTAR          = .12189E-2
MEAN_MOTION_DOT = .152587E-2
MEAN_MOTION_DDOT = 0

CCSDS_OMM_VERS = 2.0
CREATION_DATE  = 
ORIGINATOR     = 

OBJECT_NAME    = RSP-03
OBJECT_ID      = 1998-067XL
CENTER_NAME    = EARTH
REF_FRAME      = TEME
TIME_SYSTEM    = UTC
MEAN_ELEMENT_THEORY = SGP/SGP4

EPOCH          = 2026-01-01T09:23:53.732832
MEAN_MOTION    = 15.74581620
ECCENTRICITY   = .0006404
INCLINATION    = 51.6263
RA_OF_ASC_NODE = 35.9995
ARG_OF_PERICENTER = 13.7853
MEAN_ANOMALY   = 346.3320

EPHEMERIS_TYPE = 0
CLASSIFICATION_TYPE = U
NORAD_CAT_ID   = 65732
ELEMENT_SET_NO = 999
REV_AT_EPOCH   = 1625
BSTAR          = .14376E-2
MEAN_MOTION_DOT = .219741E-2
MEAN_MOTION_DDOT = 0

CCSDS_OMM_VERS = 2.0
CREATION_DATE  = 
ORIGINATOR     = 

OBJECT_NAME    = GHS-01
OBJECT_ID      = 1998-067XM
CENTER_NAME    = EARTH
REF_FRAME      = TEME
TIME_SYSTEM    = UTC
MEAN_ELEMENT_THEORY = SGP/SGP4

EPOCH          = 2025-12-31T11:36:25.105824
MEAN_MOTION    = 15.85182050
ECCENTRICITY   = .00097359
INCLINATION    = 51.6279
RA_OF_ASC_NODE = 38.1728
ARG_OF_PERICENTER = 30.7902
MEAN_ANOMALY   = 329.3671

EPHEMERIS_TYPE = 0
CLASSIFICATION_TYPE = U
NORAD_CAT_ID   = 65733
ELEMENT_SET_NO = 999
REV_AT_EPOCH   = 1614
BSTAR          = .17623853E-2
MEAN_MOTION_DOT = .449903E-2
MEAN_MOTION_DDOT = 0

CCSDS_OMM_VERS = 2.0
CREATION_DATE  = 
ORIGINATOR     = 

OBJECT_NAME    = YOTSUBA-KULOVER
OBJECT_ID      = 1998-067XN
CENTER_NAME    = EARTH
REF_FRAME      = TEME
TIME_SYSTEM    = UTC
MEAN_ELEMENT_THEORY = SGP/SGP4

EPOCH          = 2026-01-01T13:27:26.125056
MEAN_MOTION    = 15.62488013
ECCENTRICITY   = .000337
INCLINATION    = 51.6300
RA_OF_ASC_NODE = 40.1525
ARG_OF_PERICENTER = 38.1673
MEAN_ANOMALY   = 321.9559

EPHEMERIS_TYPE = 0
CLASSIFICATION_TYPE = U
NORAD_CAT_ID   = 65941
ELEMENT_SET_NO = 999
REV_AT_EPOCH   = 1295
BSTAR          = .12619722E-2
MEAN_MOTION_DOT = .115643E-2
MEAN_MOTION_DDOT = 0

CCSDS_OMM_VERS = 2.0
CREATION_DATE  = 
ORIGINATOR     = 

OBJECT_NAME    = BOTAN
OBJECT_ID      = 1998-067XP
CENTER_NAME    = EARTH
REF_FRAME      = TEME
TIME_SYSTEM    = UTC
MEAN_ELEMENT_THEORY = SGP/SGP4

EPOCH          = 2026-01-01T07:43:08.718816
MEAN_MOTION    = 15.67643310
ECCENTRICITY   = .00042801
INCLINATION    = 51.6277
RA_OF_ASC_NODE = 40.0514
ARG_OF_PERICENTER = 24.9274
MEAN_ANOMALY   = 335.1928

EPHEMERIS_TYPE = 0
CLASSIFICATION_TYPE = U
NORAD_CAT_ID   = 65942
ELEMENT_SET_NO = 999
REV_AT_EPOCH   = 1293
BSTAR          = .1498389E-2
MEAN_MOTION_DOT = .169962E-2
MEAN_MOTION_DDOT = 0

CCSDS_OMM_VERS = 2.0
CREATION_DATE  = 
ORIGINATOR     = 

OBJECT_NAME    = E-KAGAKU-1
OBJECT_ID      = 1998-067XQ
CENTER_NAME    = EARTH
REF_FRAME      = TEME
TIME_SYSTEM    = UTC
MEAN_ELEMENT_THEORY = SGP/SGP4

EPOCH          = 2025-12-31T09:49:29.466048
MEAN_MOTION    = 15.62302585
ECCENTRICITY   = .00021264
INCLINATION    = 51.6389
RA_OF_ASC_NODE = 45.9720
ARG_OF_PERICENTER = 46.3499
MEAN_ANOMALY   = 313.7671

EPHEMERIS_TYPE = 0
CLASSIFICATION_TYPE = U
NORAD_CAT_ID   = 65943
ELEMENT_SET_NO = 999
REV_AT_EPOCH   = 1277
BSTAR          = .10914141E-2
MEAN_MOTION_DOT = .99002E-3
MEAN_MOTION_DDOT = 0

CCSDS_OMM_VERS = 2.0
CREATION_DATE  = 
ORIGINATOR     = 

OBJECT_NAME    = HRC MONOBLOCK CAMERA
OBJECT_ID      = 1998-067XR
CENTER_NAME    = EARTH
REF_FRAME      = TEME
TIME_SYSTEM    = UTC
MEAN_ELEMENT_THEORY = SGP/SGP4

EPOCH          = 2026-01-01T13:49:00.556032
MEAN_MOTION    = 15.55646742
ECCENTRICITY   = .0001552
INCLINATION    = 51.6312
RA_OF_ASC_NODE = 42.4996
ARG_OF_PERICENTER = 292.9372
MEAN_ANOMALY   = 67.1456

EPHEMERIS_TYPE = 0
CLASSIFICATION_TYPE = U
NORAD_CAT_ID   = 66052
ELEMENT_SET_NO = 999
REV_AT_EPOCH   = 1192
BSTAR          = .72564E-3
MEAN_MOTION_DOT = .50623E-3
MEAN_MOTION_DDOT = 0

CCSDS_OMM_VERS = 2.0
CREATION_DATE  = 
ORIGINATOR     = 

OBJECT_NAME    = HTV-X1
OBJECT_ID      = 2025-241A
CENTER_NAME    = EARTH
REF_FRAME      = TEME
TIME_SYSTEM    = UTC
MEAN_ELEMENT_THEORY = SGP/SGP4

EPOCH          = 2026-01-01T12:47:17.854656
MEAN_MOTION    = 15.49008068
ECCENTRICITY   = .00075094
INCLINATION    = 51.6329
RA_OF_ASC_NODE = 44.4619
ARG_OF_PERICENTER = 327.7813
MEAN_ANOMALY   = 32.2715

EPHEMERIS_TYPE = 0
CLASSIFICATION_TYPE = U
NORAD_CAT_ID   = 66174
ELEMENT_SET_NO = 999
REV_AT_EPOCH   = 51
BSTAR          = .31109963E-3
MEAN_MOTION_DOT = .16743E-3
MEAN_MOTION_DDOT = 0

CCSDS_OMM_VERS = 2.0
CREATION_DATE  = 
ORIGINATOR     = 

OBJECT_NAME    = SHENZHOU-22
OBJECT_ID      = 2025-272A
CENTER_NAME    = EARTH
REF_FRAME      = TEME
TIME_SYSTEM    = UTC
MEAN_ELEMENT_THEORY = SGP/SGP4

EPOCH          = 2026-01-01T08:58:19.712928
MEAN_MOTION    = 15.60009299
ECCENTRICITY   = .00100268
INCLINATION    = 41.4667
RA_OF_ASC_NODE = 257.4382
ARG_OF_PERICENTER = 196.8065
MEAN_ANOMALY   = 163.2443

EPHEMERIS_TYPE = 0
CLASSIFICATION_TYPE = U
NORAD_CAT_ID   = 66645
ELEMENT_SET_NO = 999
REV_AT_EPOCH   = 26699
BSTAR          = .3067354E-3
MEAN_MOTION_DOT = .25321E-3
MEAN_MOTION_DDOT = 0

